IRIDIUM 112             
1 41925U 17003J   24146.47076777  .00000521  00000+0  17889-3 0  9997
2 41925  86.3991  42.8640 0002422  79.4057 280.7412 14.34218440385387
IRIDIUM 111             
1 41926U 17003K   24146.45808112  .00000426  00000+0  14522-3 0  9997
2 41926  86.3993  42.9229 0002214  77.1150 283.0293 14.34216196385369
IRIDIUM 113             
1 42803U 17039A   24146.43804856  .00000631  00000+0  21813-3 0  9999
2 42803  86.3953 276.6936 0002011  88.0115 272.1311 14.34217608363295
IRIDIUM 123             
1 42804U 17039B   24146.47952448  .00000280  00000+0  93090-4 0  9992
2 42804  86.3937 308.1938 0002100  88.4424 271.7012 14.34216963362067
IRIDIUM 120             
1 42805U 17039C   24146.64100731  .00000585  00000+0  20188-3 0  9997
2 42805  86.3941 276.4887 0002173  96.5253 263.6190 14.34215608363314
IRIDIUM 115             
1 42806U 17039D   24146.60165698  .00000842  00000+0  24429-3 0  9995
2 42806  86.4480 276.5265 0002049  85.8409 274.3026 14.43274233365713
IRIDIUM 118             
1 42807U 17039E   24146.51123883  .00000472  00000+0  16139-3 0  9994
2 42807  86.3939 308.1823 0002355  91.5968 268.5498 14.34218088362067
IRIDIUM 117             
1 42808U 17039F   24146.53025922  .00000553  00000+0  19054-3 0  9991
2 42808  86.3938 308.1386 0001905  88.1441 271.9973 14.34220465362090
